{"type": "FeatureCollection", "features": [ {"type": "Feature", "properties": {"norad_id": 39574, "name": "GPM-CORE", "group": "resource", "lat": -64.88039015521346, "lon": 147.47298654758782, "alt_km": 429.38927333417905, "timestamp": "2025-12-06T18:50:09.827842+00:00", "meta": {"OBJECT_NAME": "GPM-CORE", "OBJECT_ID": "2014-009C", "EPOCH": "2025-12-06T06:47:24.150624", "MEAN_MOTION": 15.45321827, "ECCENTRICITY": 0.0010546, "INCLINATION": 64.9745, "RA_OF_ASC_NODE": 234.3187, "ARG_OF_PERICENTER": 269.3947, "MEAN_ANOMALY": 90.5985, "EPHEMERIS_TYPE": 0, "CLASSIFICATION_TYPE": "U", "NORAD_CAT_ID": 39574, "ELEMENT_SET_NO": 999, "REV_AT_EPOCH": 66801, "BSTAR": 0.00051062775, "MEAN_MOTION_DOT": 0.0002436, "MEAN_MOTION_DDOT": 0}, "tle": {"line1": "1 39574U 14009C   25340.28291841  .00024360  00000+0  51063-3 0  9993", "line2": "2 39574  64.9745 234.3187 0010546 269.3947  90.5985 15.45321827668014"}}, "geometry": {"type": "Point", "coordinates": [147.47298654758782, -64.88039015521346]}}, {"type": "Feature", "properties": {"norad_id": 39634, "name": "SENTINEL-1A", "group": "resource", "lat": -0.8324692053451882, "lon": 165.99446046577216, "alt_km": 698.8860835094929, "timestamp": "2025-12-06T18:50:09.827851+00:00", "meta": {"OBJECT_NAME": "SENTINEL-1A", "OBJECT_ID": "2014-016A", "EPOCH": "2025-12-06T03:11:57.159744", "MEAN_MOTION": 14.59203263, "ECCENTRICITY": 0.0001245, "INCLINATION": 98.1803, "RA_OF_ASC_NODE": 345.4723, "ARG_OF_PERICENTER": 89.659, "MEAN_ANOMALY": 270.4752, "EPHEMERIS_TYPE": 0, "CLASSIFICATION_TYPE": "U", "NORAD_CAT_ID": 39634, "ELEMENT_SET_NO": 999, "REV_AT_EPOCH": 62186, "BSTAR": 8.7479964e-05, "MEAN_MOTION_DOT": 3.67e-06, "MEAN_MOTION_DDOT": 0}, "tle": {"line1": "1 39634U 14016A   25340.13330046  .00000367  00000+0  87480-4 0  9997", "line2": "2 39634  98.1803 345.4723 0001245  89.6590 270.4752 14.59203263621868"}}, "geometry": {"type": "Point", "coordinates": [165.99446046577216, -0.8324692053451882]}}, {"type": "Feature", "properties": {"norad_id": 39731, "name": "KAZEOSAT 1", "group": "resource", "lat": 17.62556064918178, "lon": -124.5016249763001, "alt_km": 751.7847254778972, "timestamp": "2025-12-06T18:50:09.827861+00:00", "meta": {"OBJECT_NAME": "KAZEOSAT 1", "OBJECT_ID": "2014-024A", "EPOCH": "2025-12-06T06:25:48.847008", "MEAN_MOTION": 14.42057067, "ECCENTRICITY": 0.00010649, "INCLINATION": 98.3443, "RA_OF_ASC_NODE": 52.3204, "ARG_OF_PERICENTER": 99.5309, "MEAN_ANOMALY": 260.6001, "EPHEMERIS_TYPE": 0, "CLASSIFICATION_TYPE": "U", "NORAD_CAT_ID": 39731, "ELEMENT_SET_NO": 999, "REV_AT_EPOCH": 61075, "BSTAR": 0.00017551321, "MEAN_MOTION_DOT": 5.33e-06, "MEAN_MOTION_DDOT": 0}, "tle": {"line1": "1 39731U 14024A   25340.26792647  .00000533  00000+0  17551-3 0  9993", "line2": "2 39731  98.3443  52.3204 0001064  99.5309 260.6001 14.42057067610758"}}, "geometry": {"type": "Point", "coordinates": [-124.5016249763001, 17.62556064918178]}}, {"type": "Feature", "properties": {"norad_id": 39766, "name": "ALOS-2", "group": "resource", "lat": -34.044249181544615, "lon": 81.11542138396275, "alt_km": 638.0186028429662, "timestamp": "2025-12-06T18:50:09.827871+00:00", "meta": {"OBJECT_NAME": "ALOS-2", "OBJECT_ID": "2014-029A", "EPOCH": "2025-12-06T06:00:20.856096", "MEAN_MOTION": 14.79464234, "ECCENTRICITY": 0.00015069, "INCLINATION": 97.9235, "RA_OF_ASC_NODE": 75.1891, "ARG_OF_PERICENTER": 105.7888, "MEAN_ANOMALY": 254.349, "EPHEMERIS_TYPE": 0, "CLASSIFICATION_TYPE": "U", "NORAD_CAT_ID": 39766, "ELEMENT_SET_NO": 999, "REV_AT_EPOCH": 62305, "BSTAR": 0.00052034417, "MEAN_MOTION_DOT": 3.836e-05, "MEAN_MOTION_DDOT": 0}, "tle": {"line1": "1 39766U 14029A   25340.25024139  .00003836  00000+0  52034-3 0  9993", "line2": "2 39766  97.9235  75.1891 0001506 105.7888 254.3490 14.79464234623055"}}, "geometry": {"type": "Point", "coordinates": [81.11542138396275, -34.044249181544615]}}, {"type": "Feature", "properties": {"norad_id": 40010, "name": "KAZEOSAT 2", "group": "resource", "lat": 64.91140725666652, "lon": 21.86647135221069, "alt_km": 608.9578990548853, "timestamp": "2025-12-06T18:50:09.827882+00:00", "meta": {"OBJECT_NAME": "KAZEOSAT 2", "OBJECT_ID": "2014-033A", "EPOCH": "2025-12-06T07:00:18.715392", "MEAN_MOTION": 14.85152176, "ECCENTRICITY": 0.00073778, "INCLINATION": 97.5516, "RA_OF_ASC_NODE": 184.9393, "ARG_OF_PERICENTER": 230.4969, "MEAN_ANOMALY": 129.5595, "EPHEMERIS_TYPE": 0, "CLASSIFICATION_TYPE": "U", "NORAD_CAT_ID": 40010, "ELEMENT_SET_NO": 999, "REV_AT_EPOCH": 62032, "BSTAR": 0.0001812312, "MEAN_MOTION_DOT": 1.502e-05, "MEAN_MOTION_DDOT": 0}, "tle": {"line1": "1 40010U 14033A   25340.29188328  .00001502  00000+0  18123-3 0  9996", "line2": "2 40010  97.5516 184.9393 0007377 230.4969 129.5595 14.85152176620323"}}, "geometry": {"type": "Point", "coordinates": [21.86647135221069, 64.91140725666652]}}, {"type": "Feature", "properties": {"norad_id": 40011, "name": "HODOYOSHI-4", "group": "resource", "lat": 27.418580993308385, "lon": -6.097117597144424, "alt_km": 599.0213350156691, "timestamp": "2025-12-06T18:50:09.827892+00:00", "meta": {"OBJECT_NAME": "HODOYOSHI-4", "OBJECT_ID": "2014-033B", "EPOCH": "2025-12-06T06:51:02.037600", "MEAN_MOTION": 14.87446398, "ECCENTRICITY": 0.00227863, "INCLINATION": 97.5414, "RA_OF_ASC_NODE": 169.4876, "ARG_OF_PERICENTER": 222.5707, "MEAN_ANOMALY": 137.3744, "EPHEMERIS_TYPE": 0, "CLASSIFICATION_TYPE": "U", "NORAD_CAT_ID": 40011, "ELEMENT_SET_NO": 999, "REV_AT_EPOCH": 62012, "BSTAR": 0.00044409163, "MEAN_MOTION_DOT": 3.988e-05, "MEAN_MOTION_DDOT": 0}, "tle": {"line1": "1 40011U 14033B   25340.28544025  .00003988  00000+0  44409-3 0  9992", "line2": "2 40011  97.5414 169.4876 0022786 222.5707 137.3744 14.87446398620123"}}, "geometry": {"type": "Point", "coordinates": [-6.097117597144424, 27.418580993308385]}}, {"type": "Feature", "properties": {"norad_id": 40013, "name": "DEIMOS-2", "group": "resource", "lat": -12.18782063412307, "lon": 35.126822487918815, "alt_km": 593.393463941944, "timestamp": "2025-12-06T18:50:09.827902+00:00", "meta": {"OBJECT_NAME": "DEIMOS-2", "OBJECT_ID": "2014-033D", "EPOCH": "2025-12-06T06:43:04.838304", "MEAN_MOTION": 14.92930455, "ECCENTRICITY": 9.831e-05, "INCLINATION": 97.6072, "RA_OF_ASC_NODE": 216.2928, "ARG_OF_PERICENTER": 93.8706, "MEAN_ANOMALY": 266.2626, "EPHEMERIS_TYPE": 0, "CLASSIFICATION_TYPE": "U", "NORAD_CAT_ID": 40013, "ELEMENT_SET_NO": 999, "REV_AT_EPOCH": 60893, "BSTAR": 0.00048812969, "MEAN_MOTION_DOT": 5.012e-05, "MEAN_MOTION_DDOT": 0}, "tle": {"line1": "1 40013U 14033D   25340.27991711  .00005012  00000+0  48813-3 0  9994", "line2": "2 40013  97.6072 216.2928 0000983  93.8706 266.2626 14.92930455608932"}}, "geometry": {"type": "Point", "coordinates": [35.126822487918815, -12.18782063412307]}}, {"type": "Feature", "properties": {"norad_id": 40015, "name": "HODOYOSHI-3", "group": "resource", "lat": 44.62735705163979, "lon": -25.52817313408262, "alt_km": 625.838083704808, "timestamp": "2025-12-06T18:50:09.827913+00:00", "meta": {"OBJECT_NAME": "HODOYOSHI-3", "OBJECT_ID": "2014-033F", "EPOCH": "2025-12-06T06:54:22.997088", "MEAN_MOTION": 14.8477251, "ECCENTRICITY": 0.00318336, "INCLINATION": 97.6195, "RA_OF_ASC_NODE": 146.4036, "ARG_OF_PERICENTER": 270.036, "MEAN_ANOMALY": 89.7207, "EPHEMERIS_TYPE": 0, "CLASSIFICATION_TYPE": "U", "NORAD_CAT_ID": 40015, "ELEMENT_SET_NO": 999, "REV_AT_EPOCH": 61899, "BSTAR": 0.00041152937, "MEAN_MOTION_DOT": 3.47e-05, "MEAN_MOTION_DDOT": 0}, "tle": {"line1": "1 40015U 14033F   25340.28776617  .00003470  00000+0  41153-3 0  9999", "line2": "2 40015  97.6195 146.4036 0031833 270.0360  89.7207 14.84772510618994"}}, "geometry": {"type": "Point", "coordinates": [-25.52817313408262, 44.62735705163979]}}, {"type": "Feature", "properties": {"norad_id": 40053, "name": "SPOT 7", "group": "resource", "lat": 12.419038069311194, "lon": 41.20212781545301, "alt_km": 691.9053138581767, "timestamp": "2025-12-06T18:50:09.827923+00:00", "meta": {"OBJECT_NAME": "SPOT 7", "OBJECT_ID": "2014-034A", "EPOCH": "2025-12-06T05:37:36.413472", "MEAN_MOTION": 14.60721499, "ECCENTRICITY": 0.00015267, "INCLINATION": 98.0916, "RA_OF_ASC_NODE": 42.4597, "ARG_OF_PERICENTER": 95.2032, "MEAN_ANOMALY": 264.9343, "EPHEMERIS_TYPE": 0, "CLASSIFICATION_TYPE": "U", "NORAD_CAT_ID": 40053, "ELEMENT_SET_NO": 999, "REV_AT_EPOCH": 60896, "BSTAR": 0.00025311181, "MEAN_MOTION_DOT": 1.188e-05, "MEAN_MOTION_DDOT": 0}, "tle": {"line1": "1 40053U 14034A   25340.23444923  .00001188  00000+0  25311-3 0  9991", "line2": "2 40053  98.0916  42.4597 0001526  95.2032 264.9343 14.60721499608966"}}, "geometry": {"type": "Point", "coordinates": [41.20212781545301, 12.419038069311194]}}, {"type": "Feature", "properties": {"norad_id": 40072, "name": "SKYSAT-B", "group": "resource", "lat": 78.14742347518273, "lon": 148.6603667467955, "alt_km": 597.7065525095259, "timestamp": "2025-12-06T18:50:09.827933+00:00", "meta": {"OBJECT_NAME": "SKYSAT-B", "OBJECT_ID": "2014-037D", "EPOCH": "2025-12-06T07:05:32.883936", "MEAN_MOTION": 14.87290568, "ECCENTRICITY": 0.00056221, "INCLINATION": 98.3602, "RA_OF_ASC_NODE": 283.6614, "ARG_OF_PERICENTER": 169.6226, "MEAN_ANOMALY": 190.5106, "EPHEMERIS_TYPE": 0, "CLASSIFICATION_TYPE": "U", "NORAD_CAT_ID": 40072, "ELEMENT_SET_NO": 999, "REV_AT_EPOCH": 61728, "BSTAR": 0.00035944313, "MEAN_MOTION_DOT": 3.182e-05, "MEAN_MOTION_DDOT": 0}, "tle": {"line1": "1 40072U 14037D   25340.29551949  .00003182  00000+0  35944-3 0  9997", "line2": "2 40072  98.3602 283.6614 0005622 169.6226 190.5106 14.87290568617286"}}, "geometry": {"type": "Point", "coordinates": [148.6603667467955, 78.14742347518273]}}]}